{
    "links": {
        "self": "http://www.neowsapp.com/rest/v1/neo/3397573?api_key=iIulBulltgU6a56xZRHN4H3l9WmuAYTsLGpBGhQ2"
    },
    "id": "3397573",
    "neo_reference_id": "3397573",
    "name": "(2007 XZ9)",
    "designation": "2007 XZ9",
    "nasa_jpl_url": "http://ssd.jpl.nasa.gov/sbdb.cgi?sstr=3397573",
    "absolute_magnitude_h": 24.8,
    "estimated_diameter": {
        "kilometers": {
            "estimated_diameter_min": 0.0291443905,
            "estimated_diameter_max": 0.0651688382
        },
        "meters": {
            "estimated_diameter_min": 29.1443904535,
            "estimated_diameter_max": 65.1688382168
        },
        "miles": {
            "estimated_diameter_min": 0.018109479,
            "estimated_diameter_max": 0.0404940262
        },
        "feet": {
            "estimated_diameter_min": 95.6180819754,
            "estimated_diameter_max": 213.8085311752
        }
    },
    "is_potentially_hazardous_asteroid": false,
    "close_approach_data": [
        {
            "close_approach_date": "2007-12-01",
            "close_approach_date_full": "2007-Dec-01 02:46",
            "epoch_date_close_approach": 1196477160000,
            "relative_velocity": {
                "kilometers_per_second": "13.873523039",
                "kilometers_per_hour": "49944.6829404184",
                "miles_per_hour": "31033.6836859505"
            },
            "miss_distance": {
                "astronomical": "0.0207474686",
                "lunar": "8.0707652854",
                "kilometers": "3103777.110451882",
                "miles": "1928597.6661726916"
            },
            "orbiting_body": "Earth"
        },
        {
            "close_approach_date": "2124-07-20",
            "close_approach_date_full": "2124-Jul-20 02:01",
            "epoch_date_close_approach": 4877114460000,
            "relative_velocity": {
                "kilometers_per_second": "22.9198368528",
                "kilometers_per_hour": "82511.4126701084",
                "miles_per_hour": "51269.383056046"
            },
            "miss_distance": {
                "astronomical": "0.3357050314",
                "lunar": "130.5892572146",
                "kilometers": "50220757.645723118",
                "miles": "31205731.7720423084"
            },
            "orbiting_body": "Earth"
        }
    ],
    "orbital_data": {
        "orbit_id": "11",
        "orbit_determination_date": "2017-04-06 09:04:58",
        "first_observation_date": "2007-12-04",
        "last_observation_date": "2007-12-18",
        "data_arc_in_days": 14,
        "observations_used": 41,
        "orbit_uncertainty": "8",
        "minimum_orbit_intersection": ".00161342",
        "jupiter_tisserand_invariant": "3.561",
        "epoch_osculation": "2454443.5",
        "eccentricity": ".586486662924304",
        "semi_major_axis": "2.042263546478573",
        "inclination": "3.036026811099636",
        "ascending_node_longitude": "247.9897779289324",
        "orbital_period": "1066.021846629272",
        "perihelion_distance": ".8445032142924006",
        "perihelion_argument": "125.8571014425804",
        "aphelion_distance": "3.240023878664746",
        "perihelion_time": "2454398.251378906923",
        "mean_anomaly": "15.28064705710734",
        "mean_motion": ".3377041485015611",
        "equinox": "J2000",
        "orbit_class": {
            "orbit_class_type": "APO",
            "orbit_class_description": "Near-Earth asteroid orbits which cross the Earth’s orbit similar to that of 1862 Apollo",
            "orbit_class_range": "a (semi-major axis) > 1.0 AU; q (perihelion) < 1.017 AU"
        }
    },
    "is_sentry_object": false
}